OPS 7218 (TRANSIT 16)   
1 02807U 67048A   24165.64666677  .00000146  00000+0  21159-3 0  9999
2 02807  89.6718  11.9264 0018252 257.4913 170.7461 13.50520702808917
OPS 4947 (TRANSIT 17)   
1 02965U 67092A   24165.62476918  .00000175  00000+0  24311-3 0  9993
2 02965  89.2321  66.6543 0049059  26.8474  38.0118 13.53239150796978
OPS 7034 (TRANSIT 18)   
1 03133U 68012A   24165.56106253  .00000133  00000+0  18820-3 0  9991
2 03133  90.0223 272.4294 0072670 316.6376  53.7850 13.51360930771792
NNSS 19 (TRANSIT 19)    
1 04507U 70067A   24165.60401915  .00000148  00000+0  19173-3 0  9996
2 04507  89.9694 235.2844 0174444  78.5930 283.4759 13.51072724648331
NNSS 20 (TRANSIT 20)    
1 06909U 73081A   24165.34144267  .00000265  00000+0  26406-3 0  9995
2 06909  89.8367 264.0656 0153346 279.4129  78.9727 13.71044480728595
TRANSAT                 
1 10457U 77106A   24165.58808292  .00000114  00000+0  16596-3 0  9993
2 10457  89.6545  98.0589 0024567 336.4125 197.1905 13.48812934293675
NOVA 1                  
1 12458U 81044A   24165.59526554  .00000108  00000+0  23393-3 0  9997
2 12458  89.8668  98.9646 0014443 163.7534   9.4700 13.23172764 79501
NOVA 3                  
1 15362U 84110A   24165.52629865  .00000083  00000+0  17646-3 0  9999
2 15362  90.1184  74.3898 0033416  40.3312 133.6071 13.22944063914639
OSCAR 30                
1 15935U 85066A   24165.59097919  .00000121  00000+0  20304-3 0  9990
2 15935  90.1809  90.6561 0167543 186.7539 348.3394 13.35919082891478
OSCAR 24                
1 15936U 85066B   24165.51778701  .00000127  00000+0  21411-3 0  9994
2 15936  90.1861  82.6218 0168122 193.1875 341.3168 13.35778322893379
POLAR BEAR              
1 17070U 86088A   24165.59408646  .00000118  00000+0  11110-3 0  9991
2 17070  89.6026 205.8914 0038192 334.0373 138.7676 13.75057172884593
OSCAR 27                
1 18361U 87080A   24165.61036358  .00000120  00000+0  18567-3 0  9994
2 18361  90.3623  59.2667 0104160 352.8103   7.1545 13.44736578802036
OSCAR 29                
1 18362U 87080B   24165.46192200  .00000108  00000+0  16553-3 0  9996
2 18362  90.3638  59.6676 0106566  14.9481 159.7802 13.44300912801560
OSCAR 23                
1 19070U 88033A   24165.47265869  .00000107  00000+0  20398-3 0  9996
2 19070  90.3132 359.5019 0187694 262.3253 108.6686 13.27655692749918
OSCAR 32                
1 19071U 88033B   24165.60643378  .00000098  00000+0  18422-3 0  9991
2 19071  90.3134 359.6125 0186209 249.1442 178.1567 13.27828848750045
NOVA 2                  
1 19223U 88052A   24165.56181954  .00000074  00000+0  15423-3 0  9995
2 19223  89.9842  79.2402 0032599  81.5271  92.6404 13.22843942737139
OSCAR 25                
1 19419U 88074A   24165.62745809  .00000106  00000+0  16637-3 0  9992
2 19419  90.0186  18.7497 0096608   8.3660  50.1648 13.42459427752995
OSCAR 31                
1 19420U 88074B   24165.64062698  .00000089  00000+0  13898-3 0  9990
2 19420  90.0200  19.0156 0094606   2.5178  56.4957 13.42448870753102
